NORAD_CAT_ID,OBJECT_NAME,OBJECT_TYPE,EPOCH,MEAN_MOTION,ECCENTRICITY,INCLINATION,RA_OF_ASC_NODE,ARG_OF_PERICENTER,MEAN_ANOMALY,BSTAR,MEAN_MOTION_DOT,MEAN_MOTION_DDOT,TLE_LINE0,TLE_LINE1,TLE_LINE2,SEMIMAJOR_AXIS,PERIOD,APOGEE,PERIGEE,DECAYED
53278.0,STARLINK-4180,PAYLOAD,2023-07-28 13:44:56,15.08840245,0.0001276,53.217,151.8081,82.2583,277.8554,1.2623e-05,-8.7e-07,0.0,0 STARLINK-4180,1 53278U 22086AN  23209.57287566 -.00000087  00000-0  12623-4 0  9999,2 53278  53.2170 151.8081 0001276  82.2583 277.8554 15.08840245 57000,6917.88,95.438,540.627,538.862,0.0
53278.0,STARLINK-4180,PAYLOAD,2023-07-29 02:28:02,15.08763914,0.0002123,53.217,149.4283,95.7891,264.3343,0.0011999,0.0001882,0.0,0 STARLINK-4180,1 53278U 22086AN  23210.10280223  .00018820  00000-0  11999-2 0  9999,2 53278  53.2170 149.4283 0002123  95.7891 264.3343 15.08763914 56913,6918.113,95.442,541.447,538.509,0.0
53278.0,STARLINK-4180,PAYLOAD,2023-07-29 05:38:51,15.08636968,0.0002869,53.217,148.8337,85.3256,274.8064,0.0029821,0.00047229,0.0,0 STARLINK-4180,1 53278U 22086AN  23210.23531682  .00047229  00000-0  29821-2 0  9999,2 53278  53.2170 148.8337 0002869  85.3256 274.8064 15.08636968 56939,6918.501,95.45,542.351,538.381,0.0
53278.0,STARLINK-4180,PAYLOAD,2023-07-29 13:35:43,15.0884182,0.0001567,53.2168,147.3476,80.1574,279.9595,0.00012487,1.7e-05,0.0,0 STARLINK-4180,1 53278U 22086AN  23210.56647008  .00001700  00000-0  12487-3 0  9990,2 53278  53.2168 147.3476 0001567  80.1574 279.9595 15.08841820 56989,6917.875,95.437,540.824,538.656,0.0
53278.0,STARLINK-4180,PAYLOAD,2023-07-30 02:18:48,15.08837051,0.000139,53.2176,144.9654,99.6105,260.5044,8.6554e-05,1.09e-05,0.0,0 STARLINK-4180,1 53278U 22086AN  23211.09639320  .00001090  00000-0  86554-4 0  9996,2 53278  53.2176 144.9654 0001390  99.6105 260.5044 15.08837051 57064,6917.889,95.438,540.716,538.793,0.0
53278.0,STARLINK-4180,PAYLOAD,2023-07-31 05:20:21,15.08843679,0.00012,53.2173,139.914,82.1281,277.9847,-6.41e-06,-3.9e-06,0.0,0 STARLINK-4180,1 53278U 22086AN  23212.22247346 -.00000390  00000-0 -64100-5 0  9993,2 53278  53.2173 139.9140 0001200  82.1281 277.9847 15.08843679 57232,6917.869,95.437,540.564,538.904,0.0
53278.0,STARLINK-4180,PAYLOAD,2023-07-31 11:41:54,15.08838677,0.0001269,53.2175,138.7238,80.9721,279.1415,-8.477e-05,-1.637e-05,0.0,0 STARLINK-4180,1 53278U 22086AN  23212.48743922 -.00001637  00000-0 -84770-4 0  9991,2 53278  53.2175 138.7238 0001269  80.9721 279.1415 15.08838677 57270,6917.884,95.438,540.627,538.872,0.0
53278.0,STARLINK-4180,PAYLOAD,2023-08-01 05:11:09,15.08842837,0.0001239,53.2181,135.4523,80.5521,279.5611,-8.6361e-06,-4.25e-06,0.0,0 STARLINK-4180,1 53278U 22086AN  23213.21607662 -.00000425  00000-0 -86361-5 0  9996,2 53278  53.2181 135.4523 0001239  80.5521 279.5611 15.08842837 57386,6917.872,95.437,540.594,538.88,0.0
53278.0,STARLINK-4180,PAYLOAD,2023-08-02 00:15:47,15.0883609,0.0001283,53.2181,131.8833,90.9846,269.1293,2.4668e-05,1.05e-06,0.0,0 STARLINK-4180,1 53278U 22086AN  23214.01096211  .00000105  00000-0  24668-4 0  9991,2 53278  53.2181 131.8833 0001283  90.9846 269.1293 15.08836090 57503,6917.892,95.438,540.645,538.87,0.0
53278.0,STARLINK-4180,PAYLOAD,2023-08-02 05:01:56,15.08843343,0.0001232,53.2181,130.9919,81.2404,278.8728,8.8237e-05,1.117e-05,0.0,0 STARLINK-4180,1 53278U 22086AN  23214.20967627  .00001117  00000-0  88237-4 0  9996,2 53278  53.2181 130.9919 0001232  81.2404 278.8728 15.08843343 57537,6917.87,95.437,540.587,538.883,0.0
53278.0,STARLINK-4180,PAYLOAD,2023-08-02 11:23:28,15.08839025,0.000118,53.2177,129.8035,91.775,268.3377,2.7247e-05,1.46e-06,0.0,0 STARLINK-4180,1 53278U 22086AN  23214.47464090  .00000146  00000-0  27247-4 0  9996,2 53278  53.2177 129.8035 0001180  91.7750 268.3377 15.08839025 57570,6917.883,95.438,540.565,538.932,0.0
53278.0,STARLINK-4180,PAYLOAD,2023-08-03 01:41:56,15.08848395,0.0001262,53.218,127.1244,92.1465,267.9672,0.00011674,1.571e-05,0.0,0 STARLINK-4180,1 53278U 22086AN  23215.07079345  .00001571  00000-0  11674-3 0  9997,2 53278  53.2180 127.1244 0001262  92.1465 267.9672 15.08848395 57669,6917.855,95.437,540.593,538.847,0.0
53278.0,STARLINK-4180,PAYLOAD,2023-08-04 01:32:44,15.08836076,0.0001043,53.2174,122.6677,89.8223,270.2888,-4.069e-05,-9.35e-06,0.0,0 STARLINK-4180,1 53278U 22086AN  23216.06440878 -.00000935  00000-0 -40690-4 0  9996,2 53278  53.2174 122.6677 0001043  89.8223 270.2888 15.08836076 57810,6917.892,95.438,540.479,539.036,0.0
53278.0,STARLINK-4180,PAYLOAD,2023-08-05 02:58:53,15.08854927,0.0001032,53.217,117.9071,92.5757,267.5353,5.5489e-05,5.96e-06,0.0,0 STARLINK-4180,1 53278U 22086AN  23217.12423398  .00000596  00000-0  55489-4 0  9995,2 53278  53.2170 117.9071 0001032  92.5757 267.5353 15.08854927 57970,6917.835,95.437,540.414,538.986,0.0
53278.0,STARLINK-4180,PAYLOAD,2023-08-06 02:49:40,15.08851971,0.00011,53.2171,113.4467,96.2495,263.8622,0.00022424,3.284e-05,0.0,0 STARLINK-4180,1 53278U 22086AN  23218.11782935  .00003284  00000-0  22424-3 0  9999,2 53278  53.2171 113.4467 0001100  96.2495 263.8622 15.08851971 58129,6917.844,95.437,540.47,538.948,0.0
53278.0,STARLINK-4180,PAYLOAD,2023-08-06 23:29:44,15.08824218,0.0001055,53.2171,109.5822,76.4765,283.6344,-0.00015297,-2.72e-05,0.0,0 STARLINK-4180,1 53278U 22086AN  23218.97898255 -.00002720  00000-0 -15297-3 0  9992,2 53278  53.2171 109.5822 0001055  76.4765 283.6344 15.08824218 58258,6917.929,95.439,540.523,539.064,0.0
53278.0,STARLINK-4180,PAYLOAD,2023-08-08 02:31:16,15.08844247,0.0001061,53.2168,104.5279,80.8355,279.2757,0.00018341,2.633e-05,0.0,0 STARLINK-4180,1 53278U 22086AN  23220.10505321  .00002633  00000-0  18341-3 0  9993,2 53278  53.2168 104.5279 0001061  80.8355 279.2757 15.08844247 58428,6917.867,95.437,540.466,538.998,0.0
53278.0,STARLINK-4180,PAYLOAD,2023-08-09 00:46:39,15.08880754,0.0001076,53.2167,100.3647,74.1471,285.9639,0.0010207,0.00016012,0.0,0 STARLINK-4180,1 53278U 22086AN  23221.03240399  .00016012  00000-0  10207-2 0  9995,2 53278  53.2167 100.3647 0001076  74.1471 285.9639 15.08880754 58562,6917.756,95.435,540.365,538.876,0.0
53278.0,STARLINK-4180,PAYLOAD,2023-08-09 08:43:35,15.08857347,0.0001632,53.2168,98.8777,79.7455,280.3721,1.4539e-05,-5.7e-07,0.0,0 STARLINK-4180,1 53278U 22086AN  23221.36360515 -.00000057  00000-0  14539-4 0  9991,2 53278  53.2168  98.8777 0001632  79.7455 280.3721 15.08857347 58618,6917.827,95.436,540.821,538.563,0.0
53278.0,STARLINK-4180,PAYLOAD,2023-08-10 02:12:50,15.08843676,0.0001241,53.2167,95.6069,83.0768,277.0366,0.00022904,3.36e-05,0.0,0 STARLINK-4180,1 53278U 22086AN  23222.09224602  .00003360  00000-0  22904-3 0  9991,2 53278  53.2167  95.6069 0001241  83.0768 277.0366 15.08843676 58727,6917.869,95.437,540.593,538.876,0.0
53278.0,STARLINK-4180,PAYLOAD,2023-08-10 08:34:22,15.08835793,0.0001308,53.2165,94.4171,88.8465,271.2677,0.00026016,3.854e-05,0.0,0 STARLINK-4180,1 53278U 22086AN  23222.35720895  .00003854  00000-0  26016-3 0  9991,2 53278  53.2165  94.4171 0001308  88.8465 271.2677 15.08835793 58763,6917.893,95.438,540.663,538.853,0.0
53278.0,STARLINK-4180,PAYLOAD,2023-08-11 08:25:10,15.08835357,0.0001352,53.2159,89.9555,86.0791,274.0355,0.00012369,1.681e-05,0.0,0 STARLINK-4180,1 53278U 22086AN  23223.35081227  .00001681  00000-0  12369-3 0  9993,2 53278  53.2159  89.9555 0001352  86.0791 274.0355 15.08835357 58919,6917.895,95.438,540.695,538.824,0.0
53278.0,STARLINK-4180,PAYLOAD,2023-08-12 20:59:02,15.0884628,9.31e-05,53.2154,83.1174,101.4874,258.6223,0.00022991,3.374e-05,0.0,0 STARLINK-4180,1 53278U 22086AN  23224.87432982  .00003374  00000-0  22991-3 0  9992,2 53278  53.2154  83.1174 0000931 101.4874 258.6223 15.08846280 59148,6917.861,95.437,540.37,539.082,0.0
53278.0,STARLINK-4180,PAYLOAD,2023-08-13 19:14:26,15.0883926,0.0001134,53.2165,78.9535,102.035,258.0769,9.1646e-05,1.171e-05,0.0,0 STARLINK-4180,1 53278U 22086AN  23225.80169243  .00001171  00000-0  91646-4 0  9990,2 53278  53.2165  78.9535 0001134 102.0350 258.0769 15.08839260 59289,6917.883,95.438,540.532,538.963,0.0
53278.0,STARLINK-4180,PAYLOAD,2023-08-14 23:51:22,15.08835858,0.0001238,53.2183,73.6007,105.5177,254.5952,0.00013212,1.815e-05,0.0,0 STARLINK-4180,1 53278U 22086AN  23226.99401405  .00001815  00000-0  13212-3 0  9997,2 53278  53.2183  73.6007 0001238 105.5177 254.5952 15.08835858 59469,6917.893,95.438,540.614,538.902,0.0
53278.0,STARLINK-4180,PAYLOAD,2023-08-16 06:03:42,15.08839104,0.0001131,53.2179,67.9521,91.0759,269.0363,5.0847e-05,5.21e-06,0.0,0 STARLINK-4180,1 53278U 22086AN  23228.25257443  .00000521  00000-0  50847-4 0  9998,2 53278  53.2179  67.9521 0001131  91.0759 269.0363 15.08839104 59654,6917.883,95.438,540.531,538.966,0.0
53278.0,STARLINK-4180,PAYLOAD,2023-08-17 23:23:43,15.08846589,0.0001356,53.2152,60.2213,91.3673,268.7474,0.00013191,1.812e-05,0.0,0 STARLINK-4180,1 53278U 22086AN  23229.97481093  .00001812  00000-0  13191-3 0  9992,2 53278  53.2152  60.2213 0001356  91.3673 268.7474 15.08846589 59919,6917.86,95.437,540.663,538.787,0.0
53278.0,STARLINK-4180,PAYLOAD,2023-08-18 05:45:17,15.08829744,0.0001909,53.2159,59.0299,81.7177,278.4031,0.00022703,3.326e-05,0.0,0 STARLINK-4180,1 53278U 22086AN  23230.23978190  .00003326  00000-0  22703-3 0  9993,2 53278  53.2159  59.0299 0001909  81.7177 278.4031 15.08829744 59957,6917.912,95.438,541.097,538.456,0.0
53278.0,STARLINK-4180,PAYLOAD,2023-08-19 11:57:36,15.0883669,0.0001228,53.2164,53.3803,84.8117,275.3015,1.2782e-05,-8.4e-07,0.0,0 STARLINK-4180,1 53278U 22086AN  23231.49834365 -.00000084  00000-0  12782-4 0  9993,2 53278  53.2164  53.3803 0001228  84.8117 275.3015 15.08836690 60142,6917.891,95.438,540.605,538.906,0.0
53278.0,STARLINK-4180,PAYLOAD,2023-08-20 18:09:55,15.0884442,0.0001148,53.2172,47.7315,79.9399,280.1723,0.00014742,2.059e-05,0.0,0 STARLINK-4180,1 53278U 22086AN  23232.75689664  .00002059  00000-0  14742-3 0  9993,2 53278  53.2172  47.7315 0001148  79.9399 280.1723 15.08844420 60335,6917.867,95.437,540.526,538.938,0.0
